{
    "links": {
        "self": "http://www.neowsapp.com/rest/v1/neo/3771607?api_key=iIulBulltgU6a56xZRHN4H3l9WmuAYTsLGpBGhQ2"
    },
    "id": "3771607",
    "neo_reference_id": "3771607",
    "name": "(2017 FH1)",
    "designation": "2017 FH1",
    "nasa_jpl_url": "http://ssd.jpl.nasa.gov/sbdb.cgi?sstr=3771607",
    "absolute_magnitude_h": 23.8,
    "estimated_diameter": {
        "kilometers": {
            "estimated_diameter_min": 0.046190746,
            "estimated_diameter_max": 0.1032856481
        },
        "meters": {
            "estimated_diameter_min": 46.1907460282,
            "estimated_diameter_max": 103.2856480504
        },
        "miles": {
            "estimated_diameter_min": 0.0287015901,
            "estimated_diameter_max": 0.0641787064
        },
        "feet": {
            "estimated_diameter_min": 151.544447199,
            "estimated_diameter_max": 338.8636855496
        }
    },
    "is_potentially_hazardous_asteroid": false,
    "close_approach_data": [
        {
            "close_approach_date": "2017-04-12",
            "close_approach_date_full": "2017-Apr-12 09:05",
            "epoch_date_close_approach": 1491987900000,
            "relative_velocity": {
                "kilometers_per_second": "10.3405404502",
                "kilometers_per_hour": "37225.9456207888",
                "miles_per_hour": "23130.7549330951"
            },
            "miss_distance": {
                "astronomical": "0.0540786128",
                "lunar": "21.0365803792",
                "kilometers": "8090045.287434736",
                "miles": "5026921.0401859168"
            },
            "orbiting_body": "Earth"
        },
        {
            "close_approach_date": "2176-07-31",
            "close_approach_date_full": "2176-Jul-31 20:37",
            "epoch_date_close_approach": 6519127020000,
            "relative_velocity": {
                "kilometers_per_second": "22.7964952738",
                "kilometers_per_hour": "82067.3829856559",
                "miles_per_hour": "50993.4802779482"
            },
            "miss_distance": {
                "astronomical": "0.378106204",
                "lunar": "147.083313356",
                "kilometers": "56563882.75218548",
                "miles": "35147166.946420424"
            },
            "orbiting_body": "Earth"
        }
    ],
    "orbital_data": {
        "orbit_id": "9",
        "orbit_determination_date": "2017-04-10 12:00:17",
        "first_observation_date": "2017-03-18",
        "last_observation_date": "2017-04-01",
        "data_arc_in_days": 14,
        "observations_used": 39,
        "orbit_uncertainty": "7",
        "minimum_orbit_intersection": ".0344888",
        "jupiter_tisserand_invariant": "3.372",
        "epoch_osculation": "2459000.5",
        "eccentricity": ".5839832383381174",
        "semi_major_axis": "2.258825193677501",
        "inclination": "3.167624912725264",
        "ascending_node_longitude": "309.7608291920547",
        "orbital_period": "1240.001930587015",
        "perihelion_distance": ".9397091422339887",
        "perihelion_argument": "284.3154663571991",
        "aphelion_distance": "3.577941245121013",
        "perihelion_time": "2459120.904388937726",
        "mean_anomaly": "325.0439415065575",
        "mean_motion": ".2903221286353776",
        "equinox": "J2000",
        "orbit_class": {
            "orbit_class_type": "APO",
            "orbit_class_description": "Near-Earth asteroid orbits which cross the Earth’s orbit similar to that of 1862 Apollo",
            "orbit_class_range": "a (semi-major axis) > 1.0 AU; q (perihelion) < 1.017 AU"
        }
    },
    "is_sentry_object": false
}